0 EUTE 7 WEST A (AB 7)
1 37816U 11051A   13282.09045245 -.00000073  00000-0  10000-3 0  5506
2 37816 000.0923 308.1293 0005520 238.4936 216.5105 01.00271537  7502
0 EUTE 7 WEST A (AB 7)
1 37816U 11051A   13282.78521878  .00000000  00000-0  10000-3 0  5513
2 37816 000.0640 312.7157 0004984 231.9116 109.3235 01.00269416  7505
0 EUTE 7 WEST A (AB 7)
1 37816U 11051A   13283.73917622 -.00000078  00000-0  10000-3 0  5511
2 37816 000.0898 310.3194 0005518 230.9022 097.0779 01.00271544  7516
0 EUTE 7 WEST A (AB 7)
1 37816U 11051A   13285.24701788 -.00000083  00000-0  10000-3 0  5520
2 37816 000.0867 312.4913 0005567 229.3540 280.7591 01.00271341  7535
0 EUTE 7 WEST A (AB 7)
1 37816U 11051A   13287.09487697 -.00000086  00000-0  10000-3 0  5539
2 37816 000.0843 312.9090 0005558 229.1604 227.5841 01.00271583  7556
0 EUTE 7 WEST A (AB 7)
1 37816U 11051A   13288.15211913 -.00000086  00000-0  10000-3 0  5544
2 37816 000.0838 313.8082 0005581 228.7920 248.6993 01.00271547  7566
0 EUTE 7 WEST A (AB 7)
1 37816U 11051A   13289.05345785 -.00000085  00000-0  10000-3 0  5559
2 37816 000.0836 313.8758 0006635 233.1616 209.6422 01.00271965  7576
0 EUTE 7 WEST A (AB 7)
1 37816U 11051A   13291.13662071 -.00000081  00000-0  10000-3 0  5568
2 37816 000.0827 314.1449 0007059 233.5206 241.0095 01.00272079  7592
0 EUTE 7 WEST A (AB 7)
1 37816U 11051A   13291.32441997 -.00000080  00000-0  10000-3 0  5571
2 37816 000.0825 315.3397 0006617 234.9042 306.2165 01.00271915  7597
0 EUTE 7 WEST A (AB 7)
1 37816U 11051A   13292.09546229 -.00000079  00000-0  10000-3 0  5589
2 37816 000.0826 314.9294 0006854 236.0798 223.7906 01.00272141  7603
0 EUTE 7 WEST A (AB 7)
1 37816U 11051A   13293.11923994 -.00000077  00000-0  10000-3 0  5590
2 37816 000.0817 315.7821 0006263 239.6048 228.9784 01.00272554  7619
0 EUTE 7 WEST A (AB 7)
1 37816U 11051A   13295.29581655 -.00000073  00000-0  10000-3 0  5603
2 37816 000.0784 317.2087 0006665 242.6650 290.2053 01.00272189  7639
